[{"OBJECT_NAME":"STARLINK-31585","OBJECT_ID":"2024-080H","EPOCH":"2026-03-09T06:24:08.620416","MEAN_MOTION":15.27590267,"ECCENTRICITY":0.00037179,"INCLINATION":43.0022,"RA_OF_ASC_NODE":36.3479,"ARG_OF_PERICENTER":254.4766,"MEAN_ANOMALY":105.5675,"EPHEMERIS_TYPE":0,"CLASSIFICATION_TYPE":"U","NORAD_CAT_ID":59608,"ELEMENT_SET_NO":999,"REV_AT_EPOCH":10452,"BSTAR":-0.00027197075,"MEAN_MOTION_DOT":-7.743e-5,"MEAN_MOTION_DDOT":0},{"OBJECT_NAME":"EDISON-1","OBJECT_ID":"2025-009B","EPOCH":"2026-03-09T19:16:13.822464","MEAN_MOTION":15.29042904,"ECCENTRICITY":0.00043285,"INCLINATION":97.4042,"RA_OF_ASC_NODE":151.6286,"ARG_OF_PERICENTER":306.4185,"MEAN_ANOMALY":53.6655,"EPHEMERIS_TYPE":0,"CLASSIFICATION_TYPE":"U","NORAD_CAT_ID":62610,"ELEMENT_SET_NO":999,"REV_AT_EPOCH":6375,"BSTAR":0.00052814963,"MEAN_MOTION_DOT":0.00014835,"MEAN_MOTION_DDOT":0}]
